NORAD_CAT_ID,OBJECT_NAME,OBJECT_TYPE,EPOCH,MEAN_MOTION,ECCENTRICITY,INCLINATION,RA_OF_ASC_NODE,ARG_OF_PERICENTER,MEAN_ANOMALY,BSTAR,MEAN_MOTION_DOT,MEAN_MOTION_DDOT,TLE_LINE0,TLE_LINE1,TLE_LINE2,SEMIMAJOR_AXIS,PERIOD,APOGEE,PERIGEE,DECAYED
52584.0,STARLINK-3922,PAYLOAD,2023-04-13 13:52:33,15.08844807,0.0001214,53.2149,202.6363,108.0132,252.0993,0.00024973,3.689e-05,0.0,0 STARLINK-3922,1 52584U 22051BA  23103.57817077  .00003689  00000-0  24973-3 0  9999,2 52584  53.2149 202.6363 0001214 108.0132 252.0993 15.08844807 51466,6917.866,95.437,540.571,538.891,0.0
52584.0,STARLINK-3922,PAYLOAD,2023-04-14 12:07:58,15.08841501,0.0001283,53.2155,198.4733,98.0811,262.0326,0.00027146,4.035e-05,0.0,0 STARLINK-3922,1 52584U 22051BA  23104.50553711  .00004035  00000-0  27146-3 0  9996,2 52584  53.2155 198.4733 0001283  98.0811 262.0326 15.08841501 51531,6917.876,95.437,540.628,538.853,0.0
52584.0,STARLINK-3922,PAYLOAD,2023-04-15 07:12:36,15.08820602,5.14e-05,53.214,194.9063,213.3264,146.7696,-0.0003132,-5.266e-05,0.0,0 STARLINK-3922,1 52584U 22051BA  23105.30042010 -.00005266  00000-0 -31320-3 0  9998,2 52584  53.2140 194.9063 0000514 213.3264 146.7696 15.08820602 51720,6917.94,95.439,540.16,539.449,0.0
52584.0,STARLINK-3922,PAYLOAD,2023-04-15 13:34:07,15.08856185,0.000124,53.2139,193.7168,131.1025,229.0075,0.00045621,6.983e-05,0.0,0 STARLINK-3922,1 52584U 22051BA  23105.56537006  .00006983  00000-0  45621-3 0  9994,2 52584  53.2139 193.7168 0001240 131.1025 229.0075 15.08856185 51765,6917.831,95.437,540.554,538.838,0.0
52584.0,STARLINK-3922,PAYLOAD,2023-04-15 23:06:27,15.08840958,0.0001345,53.2148,191.9329,75.0931,285.021,0.00014738,2.058e-05,0.0,0 STARLINK-3922,1 52584U 22051BA  23105.96281789  .00002058  00000-0  14738-3 0  9996,2 52584  53.2148 191.9329 0001345  75.0931 285.0210 15.08840958 51823,6917.877,95.437,540.673,538.812,0.0
52584.0,STARLINK-3922,PAYLOAD,2023-04-16 11:49:32,15.08835694,0.0001198,53.2151,189.5521,77.1515,282.9611,5.9052e-05,6.52e-06,0.0,0 STARLINK-3922,1 52584U 22051BA  23106.49274088  .00000652  00000-0  59052-4 0  9996,2 52584  53.2151 189.5521 0001198  77.1515 282.9611 15.08835694 51834,6917.894,95.438,540.587,538.93,0.0
52584.0,STARLINK-3922,PAYLOAD,2023-04-16 15:00:18,15.08846964,0.0001097,53.2149,188.9565,88.508,271.6037,0.00031036,4.656e-05,0.0,0 STARLINK-3922,1 52584U 22051BA  23106.62521737  .00004656  00000-0  31036-3 0  9996,2 52584  53.2149 188.9565 0001097  88.5080 271.6037 15.08846964 51922,6917.859,95.437,540.483,538.965,0.0
52584.0,STARLINK-3922,PAYLOAD,2023-04-16 22:57:15,15.08836808,0.0001503,53.2147,187.4727,61.8779,298.2365,0.00015829,2.232e-05,0.0,0 STARLINK-3922,1 52584U 22051BA  23106.95642362  .00002232  00000-0  15829-3 0  9990,2 52584  53.2147 187.4727 0001503  61.8779 298.2365 15.08836808 51975,6917.89,95.438,540.795,538.715,0.0
52584.0,STARLINK-3922,PAYLOAD,2023-04-17 11:40:20,15.08841934,0.0001389,53.2145,185.0925,72.8416,287.2729,0.00019312,2.787e-05,0.0,0 STARLINK-3922,1 52584U 22051BA  23107.48634429  .00002787  00000-0  19312-3 0  9990,2 52584  53.2145 185.0925 0001389  72.8416 287.2729 15.08841934 51988,6917.874,95.437,540.7,538.779,0.0
52584.0,STARLINK-3922,PAYLOAD,2023-04-17 16:26:29,15.08851511,0.000136,53.2148,184.1975,82.4023,277.7124,0.00055837,8.612e-05,0.0,0 STARLINK-3922,1 52584U 22051BA  23107.68506100  .00008612  00000-0  55837-3 0  9991,2 52584  53.2148 184.1975 0001360  82.4023 277.7124 15.08851511 52016,6917.845,95.437,540.651,538.769,0.0
52584.0,STARLINK-3922,PAYLOAD,2023-04-18 09:55:44,15.08849037,0.0001437,53.215,180.9259,78.2541,281.8612,0.00049057,7.53e-05,0.0,0 STARLINK-3922,1 52584U 22051BA  23108.41370395  .00007530  00000-0  49057-3 0  9993,2 52584  53.2150 180.9259 0001437  78.2541 281.8612 15.08849037 52121,6917.853,95.437,540.712,538.724,0.0
52584.0,STARLINK-3922,PAYLOAD,2023-04-18 14:41:53,15.08854794,0.0001486,53.2153,180.0336,69.6387,290.4764,0.00084505,0.00013192,0.0,0 STARLINK-3922,1 52584U 22051BA  23108.61242242  .00013192  00000-0  84505-3 0  9992,2 52584  53.2153 180.0336 0001486  69.6387 290.4764 15.08854794 52228,6917.835,95.437,540.728,538.672,0.0
52584.0,STARLINK-3922,PAYLOAD,2023-04-19 03:24:58,15.08836695,0.0001112,53.2153,177.655,98.3744,261.7375,0.00035488,5.364e-05,0.0,0 STARLINK-3922,1 52584U 22051BA  23109.14234542  .00005364  00000-0  35488-3 0  9993,2 52584  53.2153 177.6550 0001112  98.3744 261.7375 15.08836695 52308,6917.89,95.438,540.525,538.986,0.0
52584.0,STARLINK-3922,PAYLOAD,2023-04-19 08:11:08,15.08845629,0.0001465,53.2148,176.7643,76.1553,283.9602,0.0007838,0.0001221,0.0,0 STARLINK-3922,1 52584U 22051BA  23109.34106629  .00012210  00000-0  78380-3 0  9995,2 52584  53.2148 176.7643 0001465  76.1553 283.9602 15.08845629 52269,6917.863,95.437,540.742,538.715,0.0
52584.0,STARLINK-3922,PAYLOAD,2023-04-19 09:46:31,15.08849898,0.0001526,53.2149,176.4668,78.2289,281.8874,0.0010492,0.00016454,0.0,0 STARLINK-3922,1 52584U 22051BA  23109.40730608  .00016454  00000-0  10492-2 0  9995,2 52584  53.2149 176.4668 0001526  78.2289 281.8874 15.08849898 52340,6917.85,95.437,540.771,538.659,0.0
52584.0,STARLINK-3922,PAYLOAD,2023-04-19 20:54:13,15.08845739,0.0001606,53.2142,174.3873,89.8398,270.2778,0.00093569,0.00014637,0.0,0 STARLINK-3922,1 52584U 22051BA  23109.87098686  .00014637  00000-0  93569-3 0  9997,2 52584  53.2142 174.3873 0001606  89.8398 270.2778 15.08845739 52341,6917.863,95.437,540.839,538.617,0.0
52584.0,STARLINK-3922,PAYLOAD,2023-04-20 12:48:04,15.08843088,0.0001581,53.2157,171.4141,92.6075,267.5098,0.00018091,2.593e-05,0.0,0 STARLINK-3922,1 52584U 22051BA  23110.53338594  .00002593  00000-0  18091-3 0  9992,2 52584  53.2157 171.4141 0001581  92.6075 267.5098 15.08843088 52449,6917.871,95.437,540.83,538.642,0.0
52584.0,STARLINK-3922,PAYLOAD,2023-04-20 20:45:00,15.08829761,0.0001929,53.2154,169.932,98.0631,262.058,-0.00011503,-2.118e-05,0.0,0 STARLINK-3922,1 52584U 22051BA  23110.86459261 -.00002118  00000-0 -11503-3 0  9999,2 52584  53.2154 169.9320 0001929  98.0631 262.0580 15.08829761 52494,6917.912,95.438,541.111,538.442,0.0
52584.0,STARLINK-3922,PAYLOAD,2023-04-21 04:41:56,15.0883101,0.0001522,53.2151,168.439,101.3708,258.7455,-3.0971e-05,-7.81e-06,0.0,0 STARLINK-3922,1 52584U 22051BA  23111.19579242 -.00000781  00000-0 -30971-4 0  9993,2 52584  53.2151 168.4390 0001522 101.3708 258.7455 15.08831010 52611,6917.908,95.438,540.826,538.72,0.0
52584.0,STARLINK-3922,PAYLOAD,2023-04-21 12:38:52,15.08834097,0.0001344,53.2144,166.9518,96.4196,263.6949,4.4485e-05,4.2e-06,0.0,0 STARLINK-3922,1 52584U 22051BA  23111.52699272  .00000420  00000-0  44485-4 0  9999,2 52584  53.2144 166.9518 0001344  96.4196 263.6949 15.08834097 52661,6917.898,95.438,540.693,538.834,0.0
52584.0,STARLINK-3922,PAYLOAD,2023-04-22 12:29:38,15.08855219,0.0001214,53.2126,162.4896,89.902,270.2111,0.00040965,6.24e-05,0.0,0 STARLINK-3922,1 52584U 22051BA  23112.52058533  .00006240  00000-0  40965-3 0  9993,2 52584  53.2126 162.4896 0001214  89.9020 270.2111 15.08855219 52811,6917.834,95.437,540.539,538.859,0.0
52584.0,STARLINK-3922,PAYLOAD,2023-04-22 20:26:34,15.08844561,0.0001205,53.2123,161.0027,89.0511,271.0619,0.00020832,3.03e-05,0.0,0 STARLINK-3922,1 52584U 22051BA  23112.85178890  .00003030  00000-0  20832-3 0  9993,2 52584  53.2123 161.0027 0001205  89.0511 271.0619 15.08844561 52860,6917.866,95.437,540.565,538.898,0.0
52584.0,STARLINK-3922,PAYLOAD,2023-04-23 05:58:53,15.08838621,0.000148,53.2122,159.2187,93.794,266.3222,6.3694e-05,7.26e-06,0.0,0 STARLINK-3922,1 52584U 22051BA  23113.24923237  .00000726  00000-0  63694-4 0  9993,2 52584  53.2122 159.2187 0001480  93.7940 266.3222 15.08838621 52922,6917.885,95.438,540.773,538.726,0.0
52584.0,STARLINK-3922,PAYLOAD,2023-04-23 12:20:26,15.08840393,0.0001416,53.213,158.0295,92.9306,267.1848,0.00010789,1.43e-05,0.0,0 STARLINK-3922,1 52584U 22051BA  23113.51419276  .00001430  00000-0  10789-3 0  9995,2 52584  53.2130 158.0295 0001416  92.9306 267.1848 15.08840393 52892,6917.879,95.438,540.724,538.765,0.0
52584.0,STARLINK-3922,PAYLOAD,2023-04-24 02:38:54,15.08853149,0.000138,53.2134,155.353,94.5352,265.5797,0.0004259,6.499e-05,0.0,0 STARLINK-3922,1 52584U 22051BA  23114.11034902  .00006499  00000-0  42590-3 0  9996,2 52584  53.2134 155.3530 0001380  94.5352 265.5797 15.08853149 53054,6917.84,95.437,540.66,538.751,0.0
52584.0,STARLINK-3922,PAYLOAD,2023-04-24 13:46:35,15.0889792,0.0001471,53.213,153.2718,92.8955,267.2206,0.0018931,0.00030017,0.0,0 STARLINK-3922,1 52584U 22051BA  23114.57401752  .00030017  00000-0  18931-2 0  9991,2 52584  53.2130 153.2718 0001471  92.8955 267.2206 15.08897920 53055,6917.703,95.434,540.586,538.551,0.0
52584.0,STARLINK-3922,PAYLOAD,2023-04-25 07:15:50,15.08826597,0.0001543,53.2141,150.0004,85.8011,274.3158,-0.0002226,-3.828e-05,0.0,0 STARLINK-3922,1 52584U 22051BA  23115.30266975 -.00003828  00000-0 -22260-3 0  9992,2 52584  53.2141 150.0004 0001543  85.8011 274.3158 15.08826597 53232,6917.921,95.438,540.854,538.719,0.0
52584.0,STARLINK-3922,PAYLOAD,2023-04-26 11:52:48,15.08830548,0.000146,53.2153,144.6466,89.8358,270.2802,0.00026567,3.942e-05,0.0,0 STARLINK-3922,1 52584U 22051BA  23116.49500294  .00003942  00000-0  26567-3 0  9997,2 52584  53.2153 144.6466 0001460  89.8358 270.2802 15.08830548 53346,6917.909,95.438,540.784,538.764,0.0
52584.0,STARLINK-3922,PAYLOAD,2023-04-26 13:28:10,15.08843815,0.0001423,53.2146,144.3495,100.5052,259.6101,-0.00040507,-6.73e-05,0.0,0 STARLINK-3922,1 52584U 22051BA  23116.56123251 -.00006730  00000-0 -40507-3 0  9999,2 52584  53.2146 144.3495 0001423 100.5052 259.6101 15.08843815 53353,6917.869,95.437,540.718,538.749,0.0
52584.0,STARLINK-3922,PAYLOAD,2023-04-27 08:32:48,15.08848502,0.0001486,53.215,140.7816,69.8817,290.2335,0.00050455,7.753e-05,0.0,0 STARLINK-3922,1 52584U 22051BA  23117.35612147  .00007753  00000-0  50455-3 0  9991,2 52584  53.2150 140.7816 0001486  69.8817 290.2335 15.08848502 53471,6917.854,95.437,540.747,538.691,0.0
